VDNH-80                 
1 44392U 19038G   23329.14449732  .00055267  00000+0  13558-2 0  9994
2 44392  97.6833 316.8031 0015646  87.8101 272.4936 15.40395674242981
D-STAR ONE (LIGHTSAT)   
1 44393U 19038H   23329.11978618  .00060759  00000+0  14162-2 0  9996
2 44393  97.6827 317.1153 0015602  86.5257 273.7773 15.41916949243208
AMGU-1 (AMURSAT)        
1 44394U 19038J   23329.14253873  .00077407  00000+0  15854-2 0  9996
2 44394  97.6794 318.0044 0014511  83.8456 276.4445 15.45701061243274
LEMUR-2-LILLYJO         
1 44396U 19038L   23328.94451154  .00174629  00000+0  22830-2 0  9993
2 44396  97.6398 319.0744 0019006  66.7610 293.5643 15.57837253243489
MOVE-IIB                
1 44398U 19038N   23328.94062610  .00857379  30998-3  26422-2 0  9994
2 44398  97.6615 323.2573 0010408  98.8307 261.4145 15.91715168243654
DOT-1                   
1 44399U 19038P   23328.91832186  .00025132  00000+0  89925-3 0  9994
2 44399  97.6979 311.6182 0019806 108.2407 252.0989 15.28589828242780
SONATE                  
1 44400U 19038Q   23328.91355544  .00018792  00000+0  73541-3 0  9996
2 44400  97.7003 310.4988 0021144 107.7151 252.6396 15.25665445242708
LEMUR-2-WANLI           
1 44402U 19038S   23328.95585216  .00166249  00000+0  20331-2 0  9992
2 44402  97.6396 319.4781 0016832  66.1495 294.1523 15.59684283243512
LEMUR-2-MORAG           
1 44403U 19038T   23328.94564741  .00119741  00000+0  20524-2 0  9991
2 44403  97.6506 318.4503 0018016  74.3516 285.9721 15.50599809243381
SOKRAT                  
1 44404U 19038U   23328.94778164  .00071696  00000+0  15015-2 0  9993
2 44404  97.6813 317.1833 0015365  87.0344 273.2662 15.45057182243201
LEMUR-2-DUSTINTHEWIND   
1 44405U 19038V   23328.91075056  .00128814  00000+0  21256-2 0  9990
2 44405  97.6528 317.7282 0019628  64.5613 295.7666 15.51602071243386
LUCKY-7                 
1 44406U 19038W   23328.94795807  .00027149  00000+0  92141-3 0  9998
2 44406  97.6951 312.6196 0019487  98.7743 261.5705 15.30301738242850
LEMUR-2-ALEX-MADDY      
1 44407U 19038X   23328.75881177  .00059869  00000+0  14623-2 0  9996
2 44407  97.6681 314.7278 0017801  88.1930 272.1354 15.40468689243077
MOMENTUS-X1             
1 44408U 19038Y   23328.91345364  .00012085  00000+0  53259-3 0  9996
2 44408  97.6988 308.1511 0021313 114.9509 245.3944 15.21759617242617
LEMUR-2-EJATTA          
1 44409U 19038Z   23328.90609876  .00139266  00000+0  20913-2 0  9998
2 44409  97.6461 319.1360 0018491  61.0204 299.2900 15.54208976243495
LEMUR-2-GREGROBINSON    
1 44411U 19038AB  23328.96088148  .00162503  00000+0  23044-2 0  9998
2 44411  97.6450 320.0915 0020259  77.5605 282.7915 15.55656116243166
