[{"OBJECT_NAME":"VDNH-80","OBJECT_ID":"2019-038G","EPOCH":"2023-11-25T03:28:04.568448","MEAN_MOTION":15.40395674,"ECCENTRICITY":0.0015646,"INCLINATION":97.6833,"RA_OF_ASC_NODE":316.8031,"ARG_OF_PERICENTER":87.8101,"MEAN_ANOMALY":272.4936,"EPHEMERIS_TYPE":0,"CLASSIFICATION_TYPE":"U","NORAD_CAT_ID":44392,"ELEMENT_SET_NO":999,"REV_AT_EPOCH":24298,"BSTAR":0.0013558,"MEAN_MOTION_DOT":0.00055267,"MEAN_MOTION_DDOT":0},{"OBJECT_NAME":"D-STAR ONE (LIGHTSAT)","OBJECT_ID":"2019-038H","EPOCH":"2023-11-25T02:52:29.525952","MEAN_MOTION":15.41916949,"ECCENTRICITY":0.0015602,"INCLINATION":97.6827,"RA_OF_ASC_NODE":317.1153,"ARG_OF_PERICENTER":86.5257,"MEAN_ANOMALY":273.7773,"EPHEMERIS_TYPE":0,"CLASSIFICATION_TYPE":"U","NORAD_CAT_ID":44393,"ELEMENT_SET_NO":999,"REV_AT_EPOCH":24320,"BSTAR":0.0014162,"MEAN_MOTION_DOT":0.00060759,"MEAN_MOTION_DDOT":0},{"OBJECT_NAME":"AMGU-1 (AMURSAT)","OBJECT_ID":"2019-038J","EPOCH":"2023-11-25T03:25:15.346272","MEAN_MOTION":15.45701061,"ECCENTRICITY":0.0014511,"INCLINATION":97.6794,"RA_OF_ASC_NODE":318.0044,"ARG_OF_PERICENTER":83.8456,"MEAN_ANOMALY":276.4445,"EPHEMERIS_TYPE":0,"CLASSIFICATION_TYPE":"U","NORAD_CAT_ID":44394,"ELEMENT_SET_NO":999,"REV_AT_EPOCH":24327,"BSTAR":0.0015854,"MEAN_MOTION_DOT":0.00077407,"MEAN_MOTION_DDOT":0},{"OBJECT_NAME":"LEMUR-2-LILLYJO","OBJECT_ID":"2019-038L","EPOCH":"2023-11-24T22:40:05.797056","MEAN_MOTION":15.57837253,"ECCENTRICITY":0.0019006,"INCLINATION":97.6398,"RA_OF_ASC_NODE":319.0744,"ARG_OF_PERICENTER":66.761,"MEAN_ANOMALY":293.5643,"EPHEMERIS_TYPE":0,"CLASSIFICATION_TYPE":"U","NORAD_CAT_ID":44396,"ELEMENT_SET_NO":999,"REV_AT_EPOCH":24348,"BSTAR":0.002283,"MEAN_MOTION_DOT":0.00174629,"MEAN_MOTION_DDOT":0},{"OBJECT_NAME":"MOVE-IIB","OBJECT_ID":"2019-038N","EPOCH":"2023-11-24T22:34:30.095040","MEAN_MOTION":15.91715168,"ECCENTRICITY":0.0010408,"INCLINATION":97.6615,"RA_OF_ASC_NODE":323.2573,"ARG_OF_PERICENTER":98.8307,"MEAN_ANOMALY":261.4145,"EPHEMERIS_TYPE":0,"CLASSIFICATION_TYPE":"U","NORAD_CAT_ID":44398,"ELEMENT_SET_NO":999,"REV_AT_EPOCH":24365,"BSTAR":0.0026422,"MEAN_MOTION_DOT":0.00857379,"MEAN_MOTION_DDOT":0.00030998},{"OBJECT_NAME":"DOT-1","OBJECT_ID":"2019-038P","EPOCH":"2023-11-24T22:02:23.008704","MEAN_MOTION":15.28589828,"ECCENTRICITY":0.0019806,"INCLINATION":97.6979,"RA_OF_ASC_NODE":311.6182,"ARG_OF_PERICENTER":108.2407,"MEAN_ANOMALY":252.0989,"EPHEMERIS_TYPE":0,"CLASSIFICATION_TYPE":"U","NORAD_CAT_ID":44399,"ELEMENT_SET_NO":999,"REV_AT_EPOCH":24278,"BSTAR":0.00089925,"MEAN_MOTION_DOT":0.00025132,"MEAN_MOTION_DDOT":0},{"OBJECT_NAME":"SONATE","OBJECT_ID":"2019-038Q","EPOCH":"2023-11-24T21:55:31.190016","MEAN_MOTION":15.25665445,"ECCENTRICITY":0.0021144,"INCLINATION":97.7003,"RA_OF_ASC_NODE":310.4988,"ARG_OF_PERICENTER":107.7151,"MEAN_ANOMALY":252.6396,"EPHEMERIS_TYPE":0,"CLASSIFICATION_TYPE":"U","NORAD_CAT_ID":44400,"ELEMENT_SET_NO":999,"REV_AT_EPOCH":24270,"BSTAR":0.00073541,"MEAN_MOTION_DOT":0.00018792,"MEAN_MOTION_DDOT":0},{"OBJECT_NAME":"LEMUR-2-WANLI","OBJECT_ID":"2019-038S","EPOCH":"2023-11-24T22:56:25.626624","MEAN_MOTION":15.59684283,"ECCENTRICITY":0.0016832,"INCLINATION":97.6396,"RA_OF_ASC_NODE":319.4781,"ARG_OF_PERICENTER":66.1495,"MEAN_ANOMALY":294.1523,"EPHEMERIS_TYPE":0,"CLASSIFICATION_TYPE":"U","NORAD_CAT_ID":44402,"ELEMENT_SET_NO":999,"REV_AT_EPOCH":24351,"BSTAR":0.0020331,"MEAN_MOTION_DOT":0.00166249,"MEAN_MOTION_DDOT":0},{"OBJECT_NAME":"LEMUR-2-MORAG","OBJECT_ID":"2019-038T","EPOCH":"2023-11-24T22:41:43.936224","MEAN_MOTION":15.50599809,"ECCENTRICITY":0.0018016,"INCLINATION":97.6506,"RA_OF_ASC_NODE":318.4503,"ARG_OF_PERICENTER":74.3516,"MEAN_ANOMALY":285.9721,"EPHEMERIS_TYPE":0,"CLASSIFICATION_TYPE":"U","NORAD_CAT_ID":44403,"ELEMENT_SET_NO":999,"REV_AT_EPOCH":24338,"BSTAR":0.0020524,"MEAN_MOTION_DOT":0.00119741,"MEAN_MOTION_DDOT":0},{"OBJECT_NAME":"SOKRAT","OBJECT_ID":"2019-038U","EPOCH":"2023-11-24T22:44:48.333696","MEAN_MOTION":15.45057182,"ECCENTRICITY":0.0015365,"INCLINATION":97.6813,"RA_OF_ASC_NODE":317.1833,"ARG_OF_PERICENTER":87.0344,"MEAN_ANOMALY":273.2662,"EPHEMERIS_TYPE":0,"CLASSIFICATION_TYPE":"U","NORAD_CAT_ID":44404,"ELEMENT_SET_NO":999,"REV_AT_EPOCH":24320,"BSTAR":0.0015015,"MEAN_MOTION_DOT":0.00071696,"MEAN_MOTION_DDOT":0},{"OBJECT_NAME":"LEMUR-2-DUSTINTHEWIND","OBJECT_ID":"2019-038V","EPOCH":"2023-11-24T21:51:28.848384","MEAN_MOTION":15.51602071,"ECCENTRICITY":0.0019628,"INCLINATION":97.6528,"RA_OF_ASC_NODE":317.7282,"ARG_OF_PERICENTER":64.5613,"MEAN_ANOMALY":295.7666,"EPHEMERIS_TYPE":0,"CLASSIFICATION_TYPE":"U","NORAD_CAT_ID":44405,"ELEMENT_SET_NO":999,"REV_AT_EPOCH":24338,"BSTAR":0.0021256,"MEAN_MOTION_DOT":0.00128814,"MEAN_MOTION_DDOT":0},{"OBJECT_NAME":"LUCKY-7","OBJECT_ID":"2019-038W","EPOCH":"2023-11-24T22:45:03.577248","MEAN_MOTION":15.30301738,"ECCENTRICITY":0.0019487,"INCLINATION":97.6951,"RA_OF_ASC_NODE":312.6196,"ARG_OF_PERICENTER":98.7743,"MEAN_ANOMALY":261.5705,"EPHEMERIS_TYPE":0,"CLASSIFICATION_TYPE":"U","NORAD_CAT_ID":44406,"ELEMENT_SET_NO":999,"REV_AT_EPOCH":24285,"BSTAR":0.00092141,"MEAN_MOTION_DOT":0.00027149,"MEAN_MOTION_DDOT":0},{"OBJECT_NAME":"LEMUR-2-ALEX-MADDY","OBJECT_ID":"2019-038X","EPOCH":"2023-11-24T18:12:41.336928","MEAN_MOTION":15.40468689,"ECCENTRICITY":0.0017801,"INCLINATION":97.6681,"RA_OF_ASC_NODE":314.7278,"ARG_OF_PERICENTER":88.193,"MEAN_ANOMALY":272.1354,"EPHEMERIS_TYPE":0,"CLASSIFICATION_TYPE":"U","NORAD_CAT_ID":44407,"ELEMENT_SET_NO":999,"REV_AT_EPOCH":24307,"BSTAR":0.0014623,"MEAN_MOTION_DOT":0.00059869,"MEAN_MOTION_DDOT":0},{"OBJECT_NAME":"MOMENTUS-X1","OBJECT_ID":"2019-038Y","EPOCH":"2023-11-24T21:55:22.394496","MEAN_MOTION":15.21759617,"ECCENTRICITY":0.0021313,"INCLINATION":97.6988,"RA_OF_ASC_NODE":308.1511,"ARG_OF_PERICENTER":114.9509,"MEAN_ANOMALY":245.3944,"EPHEMERIS_TYPE":0,"CLASSIFICATION_TYPE":"U","NORAD_CAT_ID":44408,"ELEMENT_SET_NO":999,"REV_AT_EPOCH":24261,"BSTAR":0.00053259,"MEAN_MOTION_DOT":0.00012085,"MEAN_MOTION_DDOT":0},{"OBJECT_NAME":"LEMUR-2-EJATTA","OBJECT_ID":"2019-038Z","EPOCH":"2023-11-24T21:44:46.932864","MEAN_MOTION":15.54208976,"ECCENTRICITY":0.0018491,"INCLINATION":97.6461,"RA_OF_ASC_NODE":319.136,"ARG_OF_PERICENTER":61.0204,"MEAN_ANOMALY":299.29,"EPHEMERIS_TYPE":0,"CLASSIFICATION_TYPE":"U","NORAD_CAT_ID":44409,"ELEMENT_SET_NO":999,"REV_AT_EPOCH":24349,"BSTAR":0.0020913,"MEAN_MOTION_DOT":0.00139266,"MEAN_MOTION_DDOT":0},{"OBJECT_NAME":"LEMUR-2-GREGROBINSON","OBJECT_ID":"2019-038AB","EPOCH":"2023-11-24T23:03:40.159872","MEAN_MOTION":15.55656116,"ECCENTRICITY":0.0020259,"INCLINATION":97.645,"RA_OF_ASC_NODE":320.0915,"ARG_OF_PERICENTER":77.5605,"MEAN_ANOMALY":282.7915,"EPHEMERIS_TYPE":0,"CLASSIFICATION_TYPE":"U","NORAD_CAT_ID":44411,"ELEMENT_SET_NO":999,"REV_AT_EPOCH":24316,"BSTAR":0.0023044,"MEAN_MOTION_DOT":0.00162503,"MEAN_MOTION_DDOT":0}]
